[{"OBJECT_NAME":"HST","OBJECT_ID":"1990-037B","EPOCH":"2026-03-09T03:50:04.164288","MEAN_MOTION":15.29473555,"ECCENTRICITY":0.00018372,"INCLINATION":28.4717,"RA_OF_ASC_NODE":43.6133,"ARG_OF_PERICENTER":120.9992,"MEAN_ANOMALY":239.0785,"EPHEMERIS_TYPE":0,"CLASSIFICATION_TYPE":"U","NORAD_CAT_ID":20580,"ELEMENT_SET_NO":999,"REV_AT_EPOCH":77323,"BSTAR":0.0003002261,"MEAN_MOTION_DOT":9.063e-5,"MEAN_MOTION_DDOT":0},{"OBJECT_NAME":"STARLINK-32170","OBJECT_ID":"2024-150J","EPOCH":"2026-03-09T22:16:59.822688","MEAN_MOTION":15.30191066,"ECCENTRICITY":0.00010025,"INCLINATION":53.1601,"RA_OF_ASC_NODE":306.222,"ARG_OF_PERICENTER":83.1078,"MEAN_ANOMALY":277.0037,"EPHEMERIS_TYPE":0,"CLASSIFICATION_TYPE":"U","NORAD_CAT_ID":60591,"ELEMENT_SET_NO":999,"REV_AT_EPOCH":8799,"BSTAR":0.00010696673,"MEAN_MOTION_DOT":2.809e-5,"MEAN_MOTION_DDOT":0}]
